{
  "links" : {
    "next" : "https://api.nasa.gov/neo/rest/v1/feed?start_date=2011-02-23&end_date=2011-02-23&detailed=true&api_key=t0TVs3DtDT2H8Oy2Zy8m2eVrNsAVKAexjcZXUckd",
    "prev" : "https://api.nasa.gov/neo/rest/v1/feed?start_date=2011-02-21&end_date=2011-02-21&detailed=true&api_key=t0TVs3DtDT2H8Oy2Zy8m2eVrNsAVKAexjcZXUckd",
    "self" : "https://api.nasa.gov/neo/rest/v1/feed?start_date=2011-02-22&end_date=2011-02-22&detailed=true&api_key=t0TVs3DtDT2H8Oy2Zy8m2eVrNsAVKAexjcZXUckd"
  },
  "element_count" : 7,
  "near_earth_objects" : {
    "2011-02-22" : [ {
      "links" : {
        "self" : "https://api.nasa.gov/neo/rest/v1/neo/3557828?api_key=t0TVs3DtDT2H8Oy2Zy8m2eVrNsAVKAexjcZXUckd"
      },
      "neo_reference_id" : "3557828",
      "name" : "(2011 DR)",
      "nasa_jpl_url" : "http://ssd.jpl.nasa.gov/sbdb.cgi?sstr=3557828",
      "absolute_magnitude_h" : 25.8,
      "estimated_diameter" : {
        "kilometers" : {
          "estimated_diameter_min" : 0.0183888672,
          "estimated_diameter_max" : 0.0411187571
        },
        "meters" : {
          "estimated_diameter_min" : 18.388867207,
          "estimated_diameter_max" : 41.1187571041
        },
        "miles" : {
          "estimated_diameter_min" : 0.0114263088,
          "estimated_diameter_max" : 0.0255500032
        },
        "feet" : {
          "estimated_diameter_min" : 60.3309310875,
          "estimated_diameter_max" : 134.9040630575
        }
      },
      "is_potentially_hazardous_asteroid" : false,
      "close_approach_data" : [ {
        "close_approach_date" : "2011-02-22",
        "epoch_date_close_approach" : 1298361600000,
        "relative_velocity" : {
          "kilometers_per_second" : "5.8164596204",
          "kilometers_per_hour" : "20939.2546332933",
          "miles_per_hour" : "13010.8385247816"
        },
        "miss_distance" : {
          "astronomical" : "0.0375231873",
          "lunar" : "14.5965204239",
          "kilometers" : "5613389",
          "miles" : "3487998.25"
        },
        "orbiting_body" : "Earth"
      } ],
      "orbital_data" : {
        "orbit_id" : "8",
        "orbit_determination_date" : "2017-04-06 08:54:24",
        "orbit_uncertainty" : "8",
        "minimum_orbit_intersection" : ".0373314",
        "jupiter_tisserand_invariant" : "5.330",
        "epoch_osculation" : "2455617.5",
        "eccentricity" : ".1324939126467949",
        "semi_major_axis" : "1.182270207016066",
        "inclination" : "10.58432916725691",
        "ascending_node_longitude" : "152.138326555214",
        "orbital_period" : "469.5410266952918",
        "perihelion_distance" : "1.025626601482771",
        "perihelion_argument" : "7.22144285766049",
        "aphelion_distance" : "1.33891381254936",
        "perihelion_time" : "2455621.168059117671",
        "mean_anomaly" : "357.18767646002",
        "mean_motion" : ".7667061652391488",
        "equinox" : "J2000"
      }
    }, {
      "links" : {
        "self" : "https://api.nasa.gov/neo/rest/v1/neo/3608620?api_key=t0TVs3DtDT2H8Oy2Zy8m2eVrNsAVKAexjcZXUckd"
      },
      "neo_reference_id" : "3608620",
      "name" : "(2012 RJ15)",
      "nasa_jpl_url" : "http://ssd.jpl.nasa.gov/sbdb.cgi?sstr=3608620",
      "absolute_magnitude_h" : 23.6,
      "estimated_diameter" : {
        "kilometers" : {
          "estimated_diameter_min" : 0.0506471459,
          "estimated_diameter_max" : 0.1132504611
        },
        "meters" : {
          "estimated_diameter_min" : 50.6471458835,
          "estimated_diameter_max" : 113.2504610618
        },
        "miles" : {
          "estimated_diameter_min" : 0.0314706677,
          "estimated_diameter_max" : 0.0703705522
        },
        "feet" : {
          "estimated_diameter_min" : 166.1651821003,
          "estimated_diameter_max" : 371.5566426699
        }
      },
      "is_potentially_hazardous_asteroid" : false,
      "close_approach_data" : [ {
        "close_approach_date" : "2011-02-22",
        "epoch_date_close_approach" : 1298361600000,
        "relative_velocity" : {
          "kilometers_per_second" : "14.9604056818",
          "kilometers_per_hour" : "53857.4604544537",
          "miles_per_hour" : "33464.9314696021"
        },
        "miss_distance" : {
          "astronomical" : "0.2848083047",
          "lunar" : "110.7904281616",
          "kilometers" : "42606716",
          "miles" : "26474586"
        },
        "orbiting_body" : "Earth"
      } ],
      "orbital_data" : {
        "orbit_id" : "8",
        "orbit_determination_date" : "2017-04-06 08:49:02",
        "orbit_uncertainty" : "7",
        "minimum_orbit_intersection" : ".0861491",
        "jupiter_tisserand_invariant" : "5.954",
        "epoch_osculation" : "2458000.5",
        "eccentricity" : ".1239925543832356",
        "semi_major_axis" : "1.008238435439085",
        "inclination" : "24.77533426614956",
        "ascending_node_longitude" : "175.8704579198972",
        "orbital_period" : "369.7799001578682",
        "perihelion_distance" : ".8832243764016361",
        "perihelion_argument" : "320.1370432840499",
        "aphelion_distance" : "1.133252494476534",
        "perihelion_time" : "2458175.427502636841",
        "mean_anomaly" : "189.6989616732073",
        "mean_motion" : ".9735521044986682",
        "equinox" : "J2000"
      }
    }, {
      "links" : {
        "self" : "https://api.nasa.gov/neo/rest/v1/neo/3772993?api_key=t0TVs3DtDT2H8Oy2Zy8m2eVrNsAVKAexjcZXUckd"
      },
      "neo_reference_id" : "3772993",
      "name" : "(2017 FY101)",
      "nasa_jpl_url" : "http://ssd.jpl.nasa.gov/sbdb.cgi?sstr=3772993",
      "absolute_magnitude_h" : 27.197,
      "estimated_diameter" : {
        "kilometers" : {
          "estimated_diameter_min" : 0.0096639567,
          "estimated_diameter_max" : 0.0216092642
        },
        "meters" : {
          "estimated_diameter_min" : 9.6639567269,
          "estimated_diameter_max" : 21.609264173
        },
        "miles" : {
          "estimated_diameter_min" : 0.0060049025,
          "estimated_diameter_max" : 0.0134273701
        },
        "feet" : {
          "estimated_diameter_min" : 31.705895788,
          "estimated_diameter_max" : 70.8965382695
        }
      },
      "is_potentially_hazardous_asteroid" : false,
      "close_approach_data" : [ {
        "close_approach_date" : "2011-02-22",
        "epoch_date_close_approach" : 1298361600000,
        "relative_velocity" : {
          "kilometers_per_second" : "8.3488067157",
          "kilometers_per_hour" : "30055.7041763979",
          "miles_per_hour" : "18675.4457422735"
        },
        "miss_distance" : {
          "astronomical" : "0.2915991219",
          "lunar" : "113.4320602417",
          "kilometers" : "43622608",
          "miles" : "27105832"
        },
        "orbiting_body" : "Earth"
      } ],
      "orbital_data" : {
        "orbit_id" : "3",
        "orbit_determination_date" : "2017-04-06 08:19:01",
        "orbit_uncertainty" : "6",
        "minimum_orbit_intersection" : ".00223976",
        "jupiter_tisserand_invariant" : "6.091",
        "epoch_osculation" : "2458000.5",
        "eccentricity" : ".3458404440467126",
        "semi_major_axis" : ".986420173735552",
        "inclination" : "2.500098601413876",
        "ascending_node_longitude" : "6.219294469626103",
        "orbital_period" : "357.8420270713033",
        "perihelion_distance" : ".6452761828342133",
        "perihelion_argument" : "294.9074533476469",
        "aphelion_distance" : "1.327564164636891",
        "perihelion_time" : "2457913.918084464956",
        "mean_anomaly" : "87.10404936982205",
        "mean_motion" : "1.006030518400419",
        "equinox" : "J2000"
      }
    } ]
  }
}